OBJECT_NAME,OBJECT_ID,EPOCH,MEAN_MOTION,ECCENTRICITY,INCLINATION,RA_OF_ASC_NODE,ARG_OF_PERICENTER,MEAN_ANOMALY,EPHEMERIS_TYPE,CLASSIFICATION_TYPE,NORAD_CAT_ID,ELEMENT_SET_NO,REV_AT_EPOCH,BSTAR,MEAN_MOTION_DOT,MEAN_MOTION_DDOT
HAWK-6B,2023-011A,2026-02-28T22:41:03.504480,15.21765188,.0003422,40.5125,262.8902,330.1370,29.9243,0,U,55324,999,17134,.29432E-3,.6626E-4,0
HAWK-6C,2023-011C,2026-02-28T22:40:10.800480,15.21757225,.0003691,40.4815,259.7822,319.5416,40.5117,0,U,55326,999,17135,.3008E-3,.6776E-4,0
HAWK-6A,2023-011D,2026-02-28T21:05:42.414432,15.21760155,.0003437,40.4973,261.7616,317.8051,42.2493,0,U,55327,999,17134,.29425E-3,.6624E-4,0
HAWK-7A,2023-054P,2026-03-01T11:50:22.204320,15.26102864,.000457,97.2852,310.5700,68.7106,291.4621,0,U,56191,999,16059,.29915E-3,.7648E-4,0
HAWK-7B,2023-054R,2026-03-01T05:32:31.716960,15.26104535,.0004753,97.2873,308.5372,71.5699,288.6056,0,U,56193,999,16055,.29704E-3,.7594E-4,0
HAWK-7C,2023-054Y,2026-03-01T05:32:15.499680,15.26067563,.0004229,97.2844,309.3416,74.9052,285.2654,0,U,56200,999,16055,.34486E-3,.8819E-4,0