HAWK-6B                 
1 55324U 23011A   26059.94517945  .00006626  00000+0  29432-3 0  9994
2 55324  40.5125 262.8902 0003422 330.1370  29.9243 15.21765188171344
HAWK-6C                 
1 55326U 23011C   26059.94456945  .00006776  00000+0  30080-3 0  9995
2 55326  40.4815 259.7822 0003691 319.5416  40.5117 15.21757225171350
HAWK-6A                 
1 55327U 23011D   26059.87896313  .00006624  00000+0  29425-3 0  9998
2 55327  40.4973 261.7616 0003437 317.8051  42.2493 15.21760155171345
HAWK-7A                 
1 56191U 23054P   26060.49331255  .00007648  00000+0  29915-3 0  9995
2 56191  97.2852 310.5700 0004570  68.7106 291.4621 15.26102864160598
HAWK-7B                 
1 56193U 23054R   26060.23092265  .00007594  00000+0  29704-3 0  9990
2 56193  97.2873 308.5372 0004753  71.5699 288.6056 15.26104535160550
HAWK-7C                 
1 56200U 23054Y   26060.23073495  .00008819  00000+0  34486-3 0  9997
2 56200  97.2844 309.3416 0004229  74.9052 285.2654 15.26067563160559
